COSMOS 2503             
1 40420U 15009A   26068.69626972  .00002817  00000+0  19590-3 0  9998
2 40420  97.8437 123.7175 0015321 225.7450 134.2520 15.06275973603958
STARLINK-3756           
1 52309U 22041BA  26068.43776945  .00000748  00000+0  65065-4 0  9999
2 52309  53.2166  90.2480 0001183  91.1181 268.9947 15.08836789215829
