[{"OBJECT_NAME":"COSMOS 2503","OBJECT_ID":"2015-009A","EPOCH":"2026-03-09T16:42:37.703808","MEAN_MOTION":15.06275973,"ECCENTRICITY":0.00153206,"INCLINATION":97.8437,"RA_OF_ASC_NODE":123.7175,"ARG_OF_PERICENTER":225.745,"MEAN_ANOMALY":134.252,"EPHEMERIS_TYPE":0,"CLASSIFICATION_TYPE":"U","NORAD_CAT_ID":40420,"ELEMENT_SET_NO":999,"REV_AT_EPOCH":60395,"BSTAR":0.00019589832,"MEAN_MOTION_DOT":2.817e-5,"MEAN_MOTION_DDOT":0},{"OBJECT_NAME":"STARLINK-3756","OBJECT_ID":"2022-041BA","EPOCH":"2026-03-09T10:30:23.280480","MEAN_MOTION":15.08836789,"ECCENTRICITY":0.00011834,"INCLINATION":53.2166,"RA_OF_ASC_NODE":90.248,"ARG_OF_PERICENTER":91.1181,"MEAN_ANOMALY":268.9947,"EPHEMERIS_TYPE":0,"CLASSIFICATION_TYPE":"U","NORAD_CAT_ID":52309,"ELEMENT_SET_NO":999,"REV_AT_EPOCH":21582,"BSTAR":6.5064709e-5,"MEAN_MOTION_DOT":7.48e-6,"MEAN_MOTION_DDOT":0}]
